OBJECT_NAME,OBJECT_ID,EPOCH,MEAN_MOTION,ECCENTRICITY,INCLINATION,RA_OF_ASC_NODE,ARG_OF_PERICENTER,MEAN_ANOMALY,EPHEMERIS_TYPE,CLASSIFICATION_TYPE,NORAD_CAT_ID,ELEMENT_SET_NO,REV_AT_EPOCH,BSTAR,MEAN_MOTION_DOT,MEAN_MOTION_DDOT
STARLINK-11351 [DTC],2024-204N,2026-06-05T01:50:50.775648,15.69710641,.00008934,53.1589,285.1907,67.3334,292.7779,0,U,61886,999,9064,.5375342E-5,.63E-6,0
STARLINK-32410,2024-204P,2026-06-05T01:39:27.190944,15.34391383,.0001184,53.1603,79.9425,83.1081,277.0057,0,U,61887,999,8849,.2128539E-4,.343E-5,0
STARLINK-32377,2024-204Q,2026-06-05T01:36:22.034016,15.34431385,.00012744,53.1611,79.9301,90.5318,269.5831,0,U,61888,999,8848,.16215625E-3,.5112E-4,0
STARLINK-32292,2024-204R,2026-06-05T01:54:36.240768,15.34392055,.00012452,53.1616,80.0073,78.8835,281.2307,0,U,61889,999,8849,.25220672E-4,.476E-5,0
STARLINK-32501,2024-204S,2026-06-05T02:15:48.897216,15.34387745,.0001539,53.1616,80.0958,71.9972,288.1198,0,U,61890,999,8849,.28688E-4,.593E-5,0
STARLINK-32383,2024-204T,2026-06-05T11:29:28.427136,15.34401638,.00009938,53.1608,78.2323,94.2722,265.8394,0,U,61891,999,8855,.11083222E-3,.337E-4,0
STARLINK-32239,2024-204U,2026-06-05T01:59:45.961440,15.30171093,.00011953,53.1587,81.4401,66.2005,293.9121,0,U,61892,999,8847,-.80259737E-4,-.2733E-4,0
STARLINK-32489,2024-204V,2026-06-05T01:27:20.144448,15.34387717,.00014399,53.1616,79.8929,84.2131,275.9036,0,U,61893,999,8848,-.1127616E-5,-.414E-5,0
STARLINK-32303,2024-207A,2026-06-05T05:58:11.268192,15.27578916,.0001472,43.0005,147.2056,268.1679,91.9004,0,U,61912,999,8870,.27688E-3,.7365E-4,0
STARLINK-32434,2024-207B,2026-06-05T16:01:59.159712,15.27577617,.00010825,42.9998,145.1990,281.6811,78.3919,0,U,61913,999,8817,.63423866E-3,.1723E-3,0
STARLINK-32460,2024-207C,2026-06-05T16:16:34.417632,15.27594201,.00014679,43.0004,144.4120,265.7238,94.3446,0,U,61914,999,8818,.43495501E-3,.11731E-3,0
STARLINK-32559,2024-207D,2026-06-04T20:12:53.173440,15.27647945,.00017278,43.0023,149.3173,264.4963,95.5691,0,U,61915,999,8805,.71168377E-3,.19414E-3,0
STARLINK-32541,2024-207E,2026-06-05T15:57:34.950240,15.27600581,.00024717,42.9979,148.6300,276.2711,83.7859,0,U,61916,999,8813,.11302499E-2,.30992E-3,0
STARLINK-32544,2024-207F,2026-06-05T05:48:56.162016,15.27664823,.0000725,43.0001,147.1571,223.1348,136.9447,0,U,61917,999,8811,.76814E-3,.2099E-3,0
STARLINK-32555,2024-207G,2026-06-05T16:14:13.766208,15.27604692,.00032189,42.9999,148.7160,284.6281,75.4214,0,U,61918,999,8813,.84724404E-3,.23145E-3,0
STARLINK-32547,2024-207H,2026-06-05T16:18:25.537536,15.27656465,.00016283,43.0020,144.4223,300.2146,59.8545,0,U,61919,999,8817,.71816917E-3,.19599E-3,0
STARLINK-32616,2024-207J,2026-06-05T06:09:17.413056,15.27632532,.0001264,43.0015,147.2651,261.4880,98.5829,0,U,61920,999,8811,.6498E-3,.1769E-3,0
STARLINK-32605,2024-207K,2026-06-04T03:02:43.821312,15.27588525,.00013,43.0005,153.4051,248.5119,111.5594,0,U,61921,999,8794,.61997739E-3,.16842E-3,0
STARLINK-32579,2024-207L,2026-06-05T15:52:02.437248,15.27615906,.00011486,42.9994,148.6000,320.2119,39.8648,0,U,61922,999,8813,.6812957E-3,.18553E-3,0
STARLINK-32537,2024-207M,2026-06-05T16:17:56.276448,15.27581628,.00015841,42.9966,148.7374,275.2981,84.7690,0,U,61923,999,8813,.60106011E-3,.16315E-3,0
STARLINK-32564,2024-207N,2026-06-05T06:43:44.776704,15.27581769,.0001137,42.9990,150.9018,272.3255,87.7466,0,U,61924,999,8807,.4681E-3,.12642E-3,0
STARLINK-32536,2024-207P,2026-06-05T16:23:29.347584,15.27589796,.00016037,43.0039,148.7692,269.3880,90.6788,0,U,61925,999,8813,.61363251E-3,.16667E-3,0
STARLINK-32624,2024-207Q,2026-06-05T16:09:10.477152,15.27587136,.00015606,43.0017,144.3753,264.1140,95.9533,0,U,61926,999,8818,.73516411E-3,.20027E-3,0
STARLINK-32622,2024-207R,2026-06-04T02:40:31.153152,15.27651833,.00017527,43.0015,153.2934,248.8587,111.2078,0,U,61927,999,8794,.1071242E-2,.29399E-3,0
STARLINK-32620,2024-207S,2026-06-05T06:03:44.314272,15.27582121,.0001174,42.9999,147.2312,262.1809,97.8909,0,U,61928,999,8811,.49742E-3,.13452E-3,0
STARLINK-32609,2024-207T,2026-06-05T05:52:38.311968,15.27577221,.0001625,43.0006,147.1763,276.8261,83.2406,0,U,61929,999,8811,.10141E-2,.27748E-3,0
STARLINK-32567,2024-207U,2026-06-06T00:00:02.998944,15.27571723,.0001358,42.9993,139.6279,262.6352,214.5881,0,U,61930,999,582,.55667E-3,.15084E-3,0
STARLINK-32420,2024-207V,2026-06-05T02:23:58.282368,15.27637409,.00004726,43.0015,147.8111,225.9262,134.1551,0,U,61931,999,8809,.7020295E-3,.1914E-3,0
STARLINK-32354,2024-207W,2026-06-05T16:03:07.633440,15.27586650,.00026855,42.9973,148.6558,279.3817,80.6731,0,U,61932,999,8862,.645843E-3,.17557E-3,0
STARLINK-32361,2024-207X,2026-06-05T16:05:40.523424,15.27583418,.00019048,43.0009,145.1973,268.5049,91.5585,0,U,61933,999,8817,.64193177E-3,.17446E-3,0
