[ {"name": "STARLINK-11351 [DTC]", "line1": "1 61886U 24204N   26156.07697657  .00000063  00000+0  53753-5 0  9994", "line2": "2 61886  53.1589 285.1907 0000893  67.3334 292.7779 15.69710641 90642"}, {"name": "STARLINK-32410", "line1": "1 61887U 24204P   26156.06906471  .00000343  00000+0  21285-4 0  9996", "line2": "2 61887  53.1603  79.9425 0001184  83.1081 277.0057 15.34391383 88498"}, {"name": "STARLINK-32377", "line1": "1 61888U 24204Q   26156.06692169  .00005112  00000+0  16216-3 0  9999", "line2": "2 61888  53.1611  79.9301 0001274  90.5318 269.5831 15.34431385 88488"}, {"name": "STARLINK-32292", "line1": "1 61889U 24204R   26156.07958612  .00000476  00000+0  25221-4 0  9994", "line2": "2 61889  53.1616  80.0073 0001245  78.8835 281.2307 15.34392055 88494"}, {"name": "STARLINK-32501", "line1": "1 61890U 24204S   26156.09431594  .00000593  00000+0  28688-4 0  9993", "line2": "2 61890  53.1616  80.0958 0001539  71.9972 288.1198 15.34387745 88494"}, {"name": "STARLINK-32383", "line1": "1 61891U 24204T   26156.47880124  .00003370  00000+0  11083-3 0  9999", "line2": "2 61891  53.1608  78.2323 0000993  94.2722 265.8394 15.34401638 88550"}, {"name": "STARLINK-32239", "line1": "1 61892U 24204U   26156.08317085 -.00002733  00000+0 -80260-4 0  9996", "line2": "2 61892  53.1587  81.4401 0001195  66.2005 293.9121 15.30171093 88474"}, {"name": "STARLINK-32489", "line1": "1 61893U 24204V   26156.06064982 -.00000414  00000+0 -11276-5 0  9996", "line2": "2 61893  53.1616  79.8929 0001439  84.2131 275.9036 15.34387717 88487"}, {"name": "STARLINK-32303", "line1": "1 61912U 24207A   26156.24874153  .00007365  00000+0  27688-3 0  9992", "line2": "2 61912  43.0005 147.2056 0001472 268.1679  91.9004 15.27578916 88708"}, {"name": "STARLINK-32434", "line1": "1 61913U 24207B   26156.66804583  .00017230  00000+0  63424-3 0  9999", "line2": "2 61913  42.9998 145.1990 0001082 281.6811  78.3919 15.27577617 88179"}, {"name": "STARLINK-32460", "line1": "1 61914U 24207C   26156.67817613  .00011731  00000+0  43496-3 0  9996", "line2": "2 61914  43.0004 144.4120 0001467 265.7238  94.3446 15.27594201 88182"}, {"name": "STARLINK-32559", "line1": "1 61915U 24207D   26155.84228210  .00019414  00000+0  71168-3 0  9997", "line2": "2 61915  43.0023 149.3173 0001727 264.4963  95.5691 15.27647945 88051"}, {"name": "STARLINK-32541", "line1": "1 61916U 24207E   26156.66498785  .00030992  00000+0  11302-2 0  9992", "line2": "2 61916  42.9979 148.6300 0002471 276.2711  83.7859 15.27600581 88132"}, {"name": "STARLINK-32544", "line1": "1 61917U 24207F   26156.24231669  .00020990  00000+0  76814-3 0  9990", "line2": "2 61917  43.0001 147.1571 0000725 223.1348 136.9447 15.27664823 88113"}, {"name": "STARLINK-32555", "line1": "1 61918U 24207G   26156.67654822  .00023145  00000+0  84724-3 0  9992", "line2": "2 61918  42.9999 148.7160 0003218 284.6281  75.4214 15.27604692 88136"}, {"name": "STARLINK-32547", "line1": "1 61919U 24207H   26156.67946224  .00019599  00000+0  71817-3 0  9990", "line2": "2 61919  43.0020 144.4223 0001628 300.2146  59.8545 15.27656465 88177"}, {"name": "STARLINK-32616", "line1": "1 61920U 24207J   26156.25645154  .00017690  00000+0  64980-3 0  9997", "line2": "2 61920  43.0015 147.2651 0001264 261.4880  98.5829 15.27632532 88116"}, {"name": "STARLINK-32605", "line1": "1 61921U 24207K   26155.12689608  .00016842  00000+0  61998-3 0  9999", "line2": "2 61921  43.0005 153.4051 0001300 248.5119 111.5594 15.27588525 87948"}, {"name": "STARLINK-32579", "line1": "1 61922U 24207L   26156.66113932  .00018553  00000+0  68130-3 0  9998", "line2": "2 61922  42.9994 148.6000 0001148 320.2119  39.8648 15.27615906 88130"}, {"name": "STARLINK-32537", "line1": "1 61923U 24207M   26156.67912357  .00016315  00000+0  60106-3 0  9997", "line2": "2 61923  42.9966 148.7374 0001584 275.2981  84.7690 15.27581628 88134"}, {"name": "STARLINK-32564", "line1": "1 61924U 24207N   26156.28037936  .00012642  00000+0  46810-3 0  9991", "line2": "2 61924  42.9990 150.9018 0001137 272.3255  87.7466 15.27581769 88071"}, {"name": "STARLINK-32536", "line1": "1 61925U 24207P   26156.68297856  .00016667  00000+0  61363-3 0  9996", "line2": "2 61925  43.0039 148.7692 0001603 269.3880  90.6788 15.27589796 88134"}, {"name": "STARLINK-32624", "line1": "1 61926U 24207Q   26156.67303793  .00020027  00000+0  73516-3 0  9992", "line2": "2 61926  43.0017 144.3753 0001560 264.1140  95.9533 15.27587136 88182"}, {"name": "STARLINK-32622", "line1": "1 61927U 24207R   26155.11147168  .00029399  00000+0  10712-2 0  9992", "line2": "2 61927  43.0015 153.2934 0001752 248.8587 111.2078 15.27651833 87943"}, {"name": "STARLINK-32620", "line1": "1 61928U 24207S   26156.25259623  .00013452  00000+0  49742-3 0  9998", "line2": "2 61928  42.9999 147.2312 0001174 262.1809  97.8909 15.27582121 88115"}, {"name": "STARLINK-32609", "line1": "1 61929U 24207T   26156.24488787  .00027748  00000+0  10141-2 0  9996", "line2": "2 61929  43.0006 147.1763 0001625 276.8261  83.2406 15.27577221 88117"}, {"name": "STARLINK-32567", "line1": "1 61930U 24207U   26157.00003471  .00015084  00000+0  55667-3 0  9999", "line2": "2 61930  42.9993 139.6279 0001358 262.6352 214.5881 15.27571723  5821"}, {"name": "STARLINK-32420", "line1": "1 61931U 24207V   26156.09998012  .00019140  00000+0  70203-3 0  9992", "line2": "2 61931  43.0015 147.8111 0000472 225.9262 134.1551 15.27637409 88098"}, {"name": "STARLINK-32354", "line1": "1 61932U 24207W   26156.66883835  .00017557  00000+0  64584-3 0  9997", "line2": "2 61932  42.9973 148.6558 0002685 279.3817  80.6731 15.27586650 88626"}, {"name": "STARLINK-32361", "line1": "1 61933U 24207X   26156.67060791  .00017446  00000+0  64193-3 0  9990", "line2": "2 61933  43.0009 145.1973 0001904 268.5049  91.5585 15.27583418 88179"}]